NOAA 15                 
1 25338U 98030A   22263.48448204  .00000099  00000+0  59571-4 0  9998
2 25338  98.6388 291.7521 0010744  26.6885 333.4846 14.26172000266810
DMSP 5D-3 F15 (USA 147) 
1 25991U 99067A   22263.42770164  .00000112  00000+0  79210-4 0  9999
2 25991  99.0602 256.6572 0009096 281.3556 251.9772 14.16571103177233
METEOSAT-8 (MSG-1)      
1 27509U 02040B   22262.57629598  .00000132  00000+0  00000+0 0  9998
2 27509   8.2092  50.1186 0002599 137.9928  59.2674  1.00268715 73554
DMSP 5D-3 F16 (USA 172) 
1 28054U 03048A   22263.45469512  .00000083  00000+0  67791-4 0  9999
2 28054  98.9965 254.7855 0008288  53.3114 100.1163 14.13684059976449
NOAA 18                 
1 28654U 05018A   22263.46288694  .00000138  00000+0  98305-4 0  9991
2 28654  98.9417 333.7919 0015106  65.5437 294.7308 14.12777639893485
METEOSAT-9 (MSG-2)      
1 28912U 05049B   22262.65376882  .00000124  00000+0  00000+0 0  9994
2 28912   6.2270  65.6619 0002249 187.1311  26.8021  1.00269231 61339
EWS-G1 (GOES 13)        
1 29155U 06018A   22263.21368808  .00000029  00000+0  00000+0 0  9997
2 29155   0.8198  95.7267 0006631 115.3933 286.6038  1.00275969 59812
DMSP 5D-3 F17 (USA 191) 
1 29522U 06050A   22263.45607729  .00000102  00000+0  76355-4 0  9998
2 29522  98.7669 276.7286 0009738 357.8908   2.2222 14.14113794819331
FENGYUN 3A              
1 32958U 08026A   22262.68979157  .00000071  00000+0  54292-4 0  9992
2 32958  98.5128 221.5131 0009818 107.9882 252.2365 14.18739695741581
FENGYUN 2E              
1 33463U 08066A   22262.94407725 -.00000206  00000+0  00000+0 0  9998
2 33463   6.1113  64.7309 0001036  42.5104 317.8908  1.00276728 50394
NOAA 19                 
1 33591U 09005A   22263.47490390  .00000127  00000+0  93763-4 0  9997
2 33591  99.1410 299.5760 0012912 281.8735  78.0988 14.12610899701867
GOES 14                 
1 35491U 09033A   22263.47623205 -.00000099  00000+0  00000+0 0  9998
2 35491   0.3896 267.4402 0017751 306.2479 212.6769  1.00273861 48460
METEOR-M 1              
1 35865U 09049A   22263.43377249  .00000078  00000+0  54139-4 0  9993
2 35865  98.5391 230.8852 0001692 340.0250  20.0862 14.22357074675184
DMSP 5D-3 F18 (USA 210) 
1 35951U 09057A   22263.46789454  .00000185  00000+0  12100-3 0  9996
2 35951  98.7324 240.5545 0011075 170.2286 189.9104 14.13556322666533
GOES 15                 
1 36411U 10008A   22263.47217316  .00000047  00000+0  00000+0 0  9999
2 36411   0.3497 277.3636 0004294 248.5726 235.5675  1.00263254 45967
COMS 1                  
1 36744U 10032A   22262.83313163 -.00000350  00000+0  00000+0 0  9999
2 36744   1.3165  92.0063 0000886 102.9765 231.8099  1.00272248 37383
FENGYUN 3B              
1 37214U 10059A   22263.15335756 -.00000031  00000+0  81055-5 0  9990
2 37214  99.0950 270.8176 0023179  88.2620 272.1209 14.14264603614342
SUOMI NPP               
1 37849U 11061A   22263.44098587  .00000054  00000+0  46247-4 0  9995
2 37849  98.7365 200.6918 0001151  78.8593  62.4374 14.19544301564660
FENGYUN 2F              
1 38049U 12002A   22263.52447067 -.00000361  00000+0  00000+0 0  9998
2 38049   4.0185  78.9210 0000872 347.0899 234.0494  1.00282315 39198
METEOSAT-10 (MSG-3)     
1 38552U 12035B   22262.78522806  .00000055  00000+0  00000+0 0  9994
2 38552   1.6666  46.1081 0001246 140.0630 104.5954  1.00266056 37157
METOP-B                 
1 38771U 12049A   22263.44528743  .00000059  00000+0  47091-4 0  9992
2 38771  98.7203 321.7691 0001824 103.0581 348.4678 14.21474237519223
FENGYUN 3C              
1 39260U 13052A   22263.17290721  .00000053  00000+0  47538-4 0  9993
2 39260  98.4501 286.4721 0011278   7.7600 352.3748 14.15943102465320
METEOR-M 2              
1 40069U 14037A   22263.54076032 -.00000005  00000+0  17023-4 0  9998
2 40069  98.4311 277.0037 0006661  52.8529 307.3259 14.20718448425361
HIMAWARI-8              
1 40267U 14060A   22262.84224135 -.00000282  00000+0  00000+0 0  9994
2 40267   0.0254 219.5915 0001111 350.1349 232.8570  1.00271127 29057
FENGYUN 2G              
1 40367U 14090A   22263.44868944 -.00000308  00000+0  00000+0 0  9996
2 40367   2.1685  88.4951 0002624 201.7392 330.1872  1.00278407 28347
METEOSAT-11 (MSG-4)     
1 40732U 15034A   22262.77340910 -.00000012  00000+0  00000+0 0  9996
2 40732   0.4890  72.0645 0000899  51.9760 152.6338  1.00273640 26321
ELEKTRO-L 2             
1 41105U 15074A   22262.85216808 -.00000121  00000+0  00000+0 0  9993
2 41105   3.2201  87.0165 0002861 108.5269  95.4550  1.00270654 24814
HIMAWARI-9              
1 41836U 16064A   22262.84224095 -.00000281  00000+0  00000+0 0  9997
2 41836   0.0188 140.2625 0000921  86.5007 215.9329  1.00270384 21480
GOES 16                 
1 41866U 16071A   22263.42876542 -.00000254  00000+0  00000+0 0  9993
2 41866   0.0750 287.3803 0000721 310.9469 200.1422  1.00272792 21411
FENGYUN 4A              
1 41882U 16077A   22262.53174205 -.00000336  00000+0  00000+0 0  9996
2 41882   0.2056  86.8993 0002122  60.2136 147.3224  1.00267816 21272
CYGFM05                 
1 41884U 16078A   22262.58128514  .00003186  00000+0  15975-3 0  9992
2 41884  34.9574 335.4184 0015212 216.4755 143.4921 15.16766320319080
CYGFM04                 
1 41885U 16078B   22262.86318577  .00003032  00000+0  14984-3 0  9993
2 41885  34.9502 322.3607 0013889 236.1673 123.7717 15.17309247319179
CYGFM02                 
1 41886U 16078C   22262.85160602  .00002972  00000+0  14673-3 0  9994
2 41886  34.9596 324.6720 0014584 230.0554 129.8877 15.17348312319257
CYGFM01                 
1 41887U 16078D   22263.51688375  .00003013  00000+0  15196-3 0  9999
2 41887  34.9541 332.1323 0015736 223.6802 136.2665 15.16576663319297
CYGFM08                 
1 41888U 16078E   22263.47188104  .00003082  00000+0  15331-3 0  9997
2 41888  34.9508 324.6140 0015030 235.4383 124.4911 15.17054520319338
CYGFM06                 
1 41889U 16078F   22263.48892336  .00002950  00000+0  14561-3 0  9995
2 41889  34.9588 319.3600 0013566 235.4494 124.4938 15.17367547319429
CYGFM07                 
1 41890U 16078G   22263.47751823  .00003061  00000+0  15133-3 0  9991
2 41890  34.9526 318.2849 0013393 239.7703 120.1683 15.17298424319421
CYGFM03                 
1 41891U 16078H   22263.47624709  .00003135  00000+0  15495-3 0  9997
2 41891  34.9559 318.7899 0012884 237.9180 122.0281 15.17303232319419
FENGYUN 3D              
1 43010U 17072A   22263.52863168  .00000086  00000+0  62097-4 0  9990
2 43010  98.8216 207.6834 0002083  17.5701 342.5537 14.19223756251252
NOAA 20                 
1 43013U 17073A   22263.44783485  .00000044  00000+0  41649-4 0  9992
2 43013  98.7204 200.5321 0001446 103.9208 256.2130 14.19543969250708
GOES 17                 
1 43226U 18022A   22262.68591035  .00000092  00000+0  00000+0 0  9990
2 43226   0.0765 283.7173 0000312 294.5462 249.9066  1.00272329 16724
FENGYUN 2H              
1 43491U 18050A   22262.86345296 -.00000132  00000+0  00000+0 0  9997
2 43491   1.3814  95.3330 0003781  65.1794 228.0376  1.00275041 15738
METOP-C                 
1 43689U 18087A   22263.46426085  .00000054  00000+0  44368-4 0  9991
2 43689  98.6750 321.8689 0003762 117.5099 242.6461 14.21508232200807
GEO-KOMPSAT-2A          
1 43823U 18100A   22263.38290455 -.00000350  00000+0  00000+0 0  9998
2 43823   0.0427  26.3143 0001242 115.0573 124.0010  1.00271756 13961
METEOR-M2 2             
1 44387U 19038A   22263.51975906  .00000022  00000+0  28804-4 0  9993
2 44387  98.7324 223.5786 0001847  36.3279 323.8016 14.23720229166934
FENGYUN 3E              
1 49008U 21062A   22263.30210989 -.00000002  00000+0  19469-4 0  9994
2 49008  98.7154 263.7799 0002896  78.5878 281.5624 14.19738538 62777
GOES 18                 
1 51850U 22021A   22263.18888306  .00000090  00000+0  00000+0 0  9990
2 51850   0.0408   3.9096 0002871 214.8917  71.2917  1.00272130  2106
